{
"type": "FeatureCollection",
"name": "pilot_final_v3",
"crs": { "type": "name", "properties": { "name": "urn:ogc:def:crs:OGC::CRS84" } },
"features": [
{ "type": "Feature", "properties": { "OBJECTID": 427148, "vilnam_soi": "NAMTOL", "stcode11": "05", "dtcode11": "057", "sdtcode11": "00288", "vilcode11": "041635", "stname": "UTTARAKHAND", "dtname": "Chamoli", "sdtname": "Tharali", "vilname11": "Nam Tol", "vil_lgd": 41635, "dist_lgd": 47, "state_lgd": 5, "gp_code": 22497, "gp_name": "NAMTOL", "subdt_lgd": 288, "block_name": "NARAYANBAGAR", "block_lgd": 372, "Remark": null, "ac_no": 5.0, "test": null, "shape_Length": 5256.6546815074944, "shape_Area": 1451094.2410619757, "id": "g_mws.54029", "WATERSHED": "2B6G4", "BASIN": "2B", "AREA": "778.105", "elevation_m": 1823.244292237443, "slope_deg": 29.651359018847213, "aspect_deg": 206.51775499409473, "historical_event_freq": 2, "flow_accumulation": 38.161339421613391, "twi": 2.0639208057500449, "spi": 15.784714193288153, "distance_to_stream_m": 269.38381757313545 }, "geometry": { "type": "Polygon", "coordinates": [ [ [ 79.4182976, 30.0845083 ], [ 79.4188357, 30.0839669 ], [ 79.4194416, 30.0832317 ], [ 79.4199822, 30.0821663 ], [ 79.4206773, 30.0814508 ], [ 79.4207263, 30.0805196 ], [ 79.42155, 30.0785529 ], [ 79.4217757, 30.0780104 ], [ 79.4223377, 30.0771003 ], [ 79.4227206, 30.0763449 ], [ 79.4222883, 30.0757612 ], [ 79.4211225, 30.0745733 ], [ 79.4199888, 30.0736863 ], [ 79.4188665, 30.0727509 ], [ 79.4178329, 30.0718744 ], [ 79.4170503, 30.0712223 ], [ 79.416268, 30.0705019 ], [ 79.4156807, 30.0700898 ], [ 79.415171, 30.0698829 ], [ 79.4146602, 30.0698982 ], [ 79.4141878, 30.0701015 ], [ 79.4139109, 30.0705105 ], [ 79.4139477, 30.0710232 ], [ 79.4141224, 30.071451 ], [ 79.4139623, 30.0720825 ], [ 79.4139553, 30.0735347 ], [ 79.413889, 30.0750892 ], [ 79.4137087, 30.0758231 ], [ 79.4137639, 30.0766092 ], [ 79.4137787, 30.0776173 ], [ 79.4137133, 30.0789667 ], [ 79.4134347, 30.0797174 ], [ 79.4133723, 30.0804348 ], [ 79.4133489, 30.0812206 ], [ 79.4129337, 30.0817829 ], [ 79.4125961, 30.0825333 ], [ 79.4123967, 30.0831647 ], [ 79.412845, 30.083901 ], [ 79.4133525, 30.0845691 ], [ 79.4133296, 30.0852524 ], [ 79.4137616, 30.0858503 ], [ 79.4143835, 30.0864541 ], [ 79.4151184, 30.0867478 ], [ 79.4162612, 30.0857429 ], [ 79.4174484, 30.0847769 ], [ 79.4182976, 30.0845083 ] ] ] } },
{ "type": "Feature", "properties": { "OBJECTID": 427532, "vilnam_soi": "DEVPURI", "stcode11": "05", "dtcode11": "057", "sdtcode11": "00288", "vilcode11": "041605", "stname": "UTTARAKHAND", "dtname": "Chamoli", "sdtname": "Tharali", "vilname11": "Devpuri", "vil_lgd": 41605, "dist_lgd": 47, "state_lgd": 5, "gp_code": 259844, "gp_name": "DEVPURI", "subdt_lgd": 288, "block_name": "NARAYANBAGAR", "block_lgd": 372, "Remark": null, "ac_no": 5.0, "test": null, "shape_Length": 7357.7901395663885, "shape_Area": 1016685.4263563616, "id": "g_mws.54029", "WATERSHED": "2B6G4", "BASIN": "2B", "AREA": "778.105", "elevation_m": 1728.6655844155844, "slope_deg": 24.003856616034753, "aspect_deg": 126.03416400982319, "historical_event_freq": 2, "flow_accumulation": 9.0562770562770556, "twi": 1.9982665999230174, "spi": 3.8205130634897859, "distance_to_stream_m": 670.77984194711917 }, "geometry": { "type": "Polygon", "coordinates": [ [ [ 79.4204827, 30.1037266 ], [ 79.4208202, 30.1031553 ], [ 79.4215485, 30.1025176 ], [ 79.4220632, 30.102209 ], [ 79.422222, 30.1016565 ], [ 79.4219562, 30.1012384 ], [ 79.4217458, 30.1009078 ], [ 79.4212799, 30.100324 ], [ 79.4209274, 30.0993525 ], [ 79.4201752, 30.0979721 ], [ 79.4192886, 30.0967077 ], [ 79.4186459, 30.0957545 ], [ 79.4181829, 30.0945692 ], [ 79.4178766, 30.0932874 ], [ 79.4176568, 30.0925881 ], [ 79.4174163, 30.0915394 ], [ 79.4175356, 30.0899098 ], [ 79.4176526, 30.0887653 ], [ 79.4179684, 30.0880485 ], [ 79.4187721, 30.0879738 ], [ 79.4199821, 30.0868914 ], [ 79.4206311, 30.0865057 ], [ 79.4203874, 30.0861167 ], [ 79.4195448, 30.0850076 ], [ 79.419033, 30.0847147 ], [ 79.4182976, 30.0845083 ], [ 79.4174484, 30.0847769 ], [ 79.4162612, 30.0857429 ], [ 79.4151184, 30.0867478 ], [ 79.4155868, 30.086798 ], [ 79.4159822, 30.0869353 ], [ 79.4162883, 30.0870868 ], [ 79.4164602, 30.087296 ], [ 79.4166438, 30.0874131 ], [ 79.4164595, 30.0874512 ], [ 79.4161858, 30.0875279 ], [ 79.415918, 30.0875269 ], [ 79.4155889, 30.087516 ], [ 79.415421, 30.087627 ], [ 79.4153865, 30.0878549 ], [ 79.4154524, 30.0880686 ], [ 79.4156231, 30.0885446 ], [ 79.4155223, 30.0909698 ], [ 79.4156251, 30.0927942 ], [ 79.4158406, 30.0944056 ], [ 79.4163019, 30.0959402 ], [ 79.4164954, 30.0974932 ], [ 79.4165461, 30.0985509 ], [ 79.4167555, 30.099095 ], [ 79.4172301, 30.100193 ], [ 79.4174046, 30.1010378 ], [ 79.4173657, 30.1021922 ], [ 79.4173029, 30.103657 ], [ 79.4171978, 30.1046365 ], [ 79.4170832, 30.1052861 ], [ 79.4170293, 30.1072263 ], [ 79.4170037, 30.1079248 ], [ 79.417347, 30.1084596 ], [ 79.4176801, 30.1088101 ], [ 79.4180592, 30.108889 ], [ 79.4184165, 30.1088418 ], [ 79.4189424, 30.1085332 ], [ 79.4191676, 30.1081169 ], [ 79.4192147, 30.1075931 ], [ 79.4193089, 30.1065554 ], [ 79.4196822, 30.1054701 ], [ 79.4201334, 30.104453 ], [ 79.4204827, 30.1037266 ] ] ] } },
{ "type": "Feature", "properties": { "OBJECTID": 427338, "vilnam_soi": "POKHRA", "stcode11": "05", "dtcode11": "057", "sdtcode11": "00288", "vilcode11": "041611", "stname": "UTTARAKHAND", "dtname": "Chamoli", "sdtname": "Tharali", "vilname11": "Pokhada", "vil_lgd": 41611, "dist_lgd": 47, "state_lgd": 5, "gp_code": 22467, "gp_name": "GAIR BARAM", "subdt_lgd": 288, "block_name": "NARAYANBAGAR", "block_lgd": 372, "Remark": null, "ac_no": 5.0, "test": null, "shape_Length": 2652.4328530526918, "shape_Area": 251776.27343851962, "id": "g_mws.54029", "WATERSHED": "2B6G4", "BASIN": "2B", "AREA": "778.105", "elevation_m": 1533.8947368421052, "slope_deg": 27.894639424245362, "aspect_deg": 211.78622743643115, "historical_event_freq": 2, "flow_accumulation": 12.43859649122807, "twi": 1.951212951450692, "spi": 6.3377751101722097, "distance_to_stream_m": 517.10854956226387 }, "geometry": { "type": "Polygon", "coordinates": [ [ [ 79.4308836, 30.0890452 ], [ 79.4302628, 30.0881892 ], [ 79.4282128, 30.087561 ], [ 79.4264756, 30.0868563 ], [ 79.4251845, 30.086192 ], [ 79.4237609, 30.0852361 ], [ 79.4224268, 30.0842417 ], [ 79.4236673, 30.0861672 ], [ 79.4241979, 30.0872169 ], [ 79.4244842, 30.0880329 ], [ 79.4243916, 30.0887312 ], [ 79.4248774, 30.0898196 ], [ 79.4252881, 30.0902673 ], [ 79.42732, 30.0899932 ], [ 79.4281806, 30.0896857 ], [ 79.4289842, 30.0896206 ], [ 79.4301467, 30.089159 ], [ 79.4308836, 30.0890452 ] ] ] } },
{ "type": "Feature", "properties": { "OBJECTID": 427325, "vilnam_soi": "TYULA", "stcode11": "05", "dtcode11": "057", "sdtcode11": "00288", "vilcode11": "041613", "stname": "UTTARAKHAND", "dtname": "Chamoli", "sdtname": "Tharali", "vilname11": "Tyula", "vil_lgd": 41613, "dist_lgd": 47, "state_lgd": 5, "gp_code": 22506, "gp_name": "TYUNLA", "subdt_lgd": 288, "block_name": "NARAYANBAGAR", "block_lgd": 372, "Remark": null, "ac_no": 5.0, "test": null, "shape_Length": 6485.1507541241172, "shape_Area": 1353480.8504472971, "id": "g_mws.54029", "WATERSHED": "2B6G4", "BASIN": "2B", "AREA": "778.105", "elevation_m": 1641.3941368078176, "slope_deg": 25.734270437809915, "aspect_deg": 105.8603011069909, "historical_event_freq": 2, "flow_accumulation": 32.107491856677527, "twi": 2.4986718874147686, "spi": 12.314732110796379, "distance_to_stream_m": 393.02220608399523 }, "geometry": { "type": "Polygon", "coordinates": [ [ [ 79.4242668, 30.1010526 ], [ 79.4239459, 30.100479 ], [ 79.4236404, 30.0990226 ], [ 79.4236434, 30.0983823 ], [ 79.4241135, 30.0980541 ], [ 79.424739, 30.0979205 ], [ 79.4263893, 30.0981592 ], [ 79.4252995, 30.0973597 ], [ 79.4244221, 30.0964931 ], [ 79.4238684, 30.0956179 ], [ 79.4236825, 30.094812 ], [ 79.4236735, 30.094356 ], [ 79.4239777, 30.0937167 ], [ 79.424303, 30.0933492 ], [ 79.4250077, 30.0929636 ], [ 79.4250488, 30.0913434 ], [ 79.4252881, 30.0902673 ], [ 79.4248774, 30.0898196 ], [ 79.4243916, 30.0887312 ], [ 79.4244842, 30.0880329 ], [ 79.4241979, 30.0872169 ], [ 79.4236673, 30.0861672 ], [ 79.4224268, 30.0842417 ], [ 79.4214977, 30.0825308 ], [ 79.4206773, 30.0814508 ], [ 79.4199822, 30.0821663 ], [ 79.4194416, 30.0832317 ], [ 79.4188357, 30.0839669 ], [ 79.4182976, 30.0845083 ], [ 79.419033, 30.0847147 ], [ 79.4195448, 30.0850076 ], [ 79.4203874, 30.0861167 ], [ 79.4206311, 30.0865057 ], [ 79.4199821, 30.0868914 ], [ 79.4187721, 30.0879738 ], [ 79.4179684, 30.0880485 ], [ 79.4176526, 30.0887653 ], [ 79.4175356, 30.0899098 ], [ 79.4174163, 30.0915394 ], [ 79.4176568, 30.0925881 ], [ 79.4178766, 30.0932874 ], [ 79.4181829, 30.0945692 ], [ 79.4186459, 30.0957545 ], [ 79.4192886, 30.0967077 ], [ 79.4201752, 30.0979721 ], [ 79.4209274, 30.0993525 ], [ 79.4212799, 30.100324 ], [ 79.4217458, 30.1009078 ], [ 79.4219562, 30.1012384 ], [ 79.4230157, 30.1013586 ], [ 79.4237508, 30.1016329 ], [ 79.4242668, 30.1010526 ] ] ] } },
{ "type": "Feature", "properties": { "OBJECTID": 427316, "vilnam_soi": "MALTURA", "stcode11": "05", "dtcode11": "057", "sdtcode11": "00288", "vilcode11": "041614", "stname": "UTTARAKHAND", "dtname": "Chamoli", "sdtname": "Tharali", "vilname11": "Maltura", "vil_lgd": 41614, "dist_lgd": 47, "state_lgd": 5, "gp_code": 259846, "gp_name": "MALTURA", "subdt_lgd": 288, "block_name": "NARAYANBAGAR", "block_lgd": 372, "Remark": null, "ac_no": 5.0, "test": null, "shape_Length": 2182.4716194097623, "shape_Area": 249419.62656504713, "id": "g_mws.54029", "WATERSHED": "2B6G4", "BASIN": "2B", "AREA": "778.105", "elevation_m": 1345.6681415929204, "slope_deg": 25.578807094624736, "aspect_deg": 104.87018761053569, "historical_event_freq": 2, "flow_accumulation": 12.455752212389381, "twi": 2.2171093357487188, "spi": 5.1890571270185779, "distance_to_stream_m": 341.67929465278132 }, "geometry": { "type": "Polygon", "coordinates": [ [ [ 79.432483, 30.093019 ], [ 79.4317817, 30.0926673 ], [ 79.4312829, 30.0919573 ], [ 79.4308159, 30.0916161 ], [ 79.430121, 30.0922928 ], [ 79.4285532, 30.0935097 ], [ 79.4273192, 30.0949607 ], [ 79.4259308, 30.0959842 ], [ 79.425772, 30.0965464 ], [ 79.4272641, 30.097192 ], [ 79.4285571, 30.0974683 ], [ 79.4290501, 30.0970237 ], [ 79.4304172, 30.0957672 ], [ 79.4315399, 30.094277 ], [ 79.432483, 30.093019 ] ] ] } },
{ "type": "Feature", "properties": { "OBJECTID": 427284, "vilnam_soi": "GARBARAM", "stcode11": "05", "dtcode11": "057", "sdtcode11": "00288", "vilcode11": "041636", "stname": "UTTARAKHAND", "dtname": "Chamoli", "sdtname": "Tharali", "vilname11": "Gairwaram", "vil_lgd": 41636, "dist_lgd": 47, "state_lgd": 5, "gp_code": 22467, "gp_name": "GAIR BARAM", "subdt_lgd": 288, "block_name": "NARAYANBAGAR", "block_lgd": 372, "Remark": null, "ac_no": 5.0, "test": null, "shape_Length": 4420.2167936925816, "shape_Area": 1025632.7518588383, "id": "g_mws.54029", "WATERSHED": "2B6G4", "BASIN": "2B", "AREA": "778.105", "elevation_m": 1508.5689655172414, "slope_deg": 25.401955919008131, "aspect_deg": 175.42918313023441, "historical_event_freq": 2, "flow_accumulation": 97.463362068965523, "twi": 2.5033911621255864, "spi": 26.673375286503603, "distance_to_stream_m": 186.35534554812233 }, "geometry": { "type": "Polygon", "coordinates": [ [ [ 79.4268133, 30.0766699 ], [ 79.4263448, 30.0766585 ], [ 79.4253636, 30.076558 ], [ 79.4243708, 30.0765351 ], [ 79.4232666, 30.076473 ], [ 79.4227206, 30.0763449 ], [ 79.4223377, 30.0771003 ], [ 79.4217757, 30.0780104 ], [ 79.42155, 30.0785529 ], [ 79.4207263, 30.0805196 ], [ 79.4206773, 30.0814508 ], [ 79.4214977, 30.0825308 ], [ 79.4224268, 30.0842417 ], [ 79.4237609, 30.0852361 ], [ 79.4251845, 30.086192 ], [ 79.4264756, 30.0868563 ], [ 79.4282128, 30.087561 ], [ 79.4302628, 30.0881892 ], [ 79.4308836, 30.0890452 ], [ 79.4308671, 30.0877838 ], [ 79.4306311, 30.0857455 ], [ 79.4300556, 30.0847538 ], [ 79.4297003, 30.0843839 ], [ 79.4291455, 30.0837222 ], [ 79.4288811, 30.0830032 ], [ 79.428909, 30.0818002 ], [ 79.4284917, 30.0803822 ], [ 79.4278084, 30.0785945 ], [ 79.4268322, 30.0774074 ], [ 79.4268133, 30.0766699 ] ] ] } },
{ "type": "Feature", "properties": { "OBJECTID": 427389, "vilnam_soi": "HARMANI TALLA MALLA", "stcode11": "05", "dtcode11": "057", "sdtcode11": "00288", "vilcode11": "041595", "stname": "UTTARAKHAND", "dtname": "Chamoli", "sdtname": "Tharali", "vilname11": "Harmani Talli", "vil_lgd": 41595, "dist_lgd": 47, "state_lgd": 5, "gp_code": 22470, "gp_name": "HARMANI TALLI", "subdt_lgd": 288, "block_name": "NARAYANBAGAR", "block_lgd": 372, "Remark": null, "ac_no": 5.0, "test": null, "shape_Length": 4619.2024199922162, "shape_Area": 1193522.6398613248, "id": "g_mws.54029", "WATERSHED": "2B6G4", "BASIN": "2B", "AREA": "778.105", "elevation_m": 1286.1030640668523, "slope_deg": 27.911885860503148, "aspect_deg": 65.457794518572797, "historical_event_freq": 2, "flow_accumulation": 18.250696378830085, "twi": 2.3938654398769712, "spi": 8.890124467144652, "distance_to_stream_m": 536.80384317414996 }, "geometry": { "type": "Polygon", "coordinates": [ [ [ 79.4291389, 30.1116618 ], [ 79.4278923, 30.1108159 ], [ 79.4266573, 30.1100257 ], [ 79.4253988, 30.109507 ], [ 79.4243972, 30.1089311 ], [ 79.4238084, 30.1083857 ], [ 79.423029, 30.1080142 ], [ 79.4223664, 30.1089141 ], [ 79.4217037, 30.1098335 ], [ 79.4204602, 30.1108477 ], [ 79.4198899, 30.1110979 ], [ 79.4194099, 30.1111447 ], [ 79.4191318, 30.1109594 ], [ 79.4189201, 30.110881 ], [ 79.4184016, 30.1119755 ], [ 79.4181054, 30.1132454 ], [ 79.4179685, 30.1138852 ], [ 79.4166928, 30.114618 ], [ 79.4161105, 30.1150524 ], [ 79.4158915, 30.1165069 ], [ 79.4155763, 30.1170782 ], [ 79.4154704, 30.1182323 ], [ 79.4153099, 30.1190352 ], [ 79.4161647, 30.1190212 ], [ 79.4172363, 30.1188884 ], [ 79.4177974, 30.1186683 ], [ 79.4193513, 30.1183578 ], [ 79.420561, 30.1180888 ], [ 79.4211698, 30.1181764 ], [ 79.421878, 30.1180081 ], [ 79.4224882, 30.1177882 ], [ 79.4234717, 30.1175696 ], [ 79.4241806, 30.1172476 ], [ 79.4249893, 30.1166013 ], [ 79.4262315, 30.1157003 ], [ 79.4269815, 30.1150025 ], [ 79.4281681, 30.1133667 ], [ 79.4288997, 30.1123784 ], [ 79.4291389, 30.1116618 ] ] ] } },
{ "type": "Feature", "properties": { "OBJECTID": 427379, "vilnam_soi": "JHANGOR", "stcode11": "05", "dtcode11": "057", "sdtcode11": "00288", "vilcode11": "041597", "stname": "UTTARAKHAND", "dtname": "Chamoli", "sdtname": "Tharali", "vilname11": "Jhangor Gaon", "vil_lgd": 41597, "dist_lgd": 47, "state_lgd": 5, "gp_code": 22470, "gp_name": "HARMANI TALLI", "subdt_lgd": 288, "block_name": "NARAYANBAGAR", "block_lgd": 372, "Remark": null, "ac_no": 5.0, "test": null, "shape_Length": 2757.6176295789114, "shape_Area": 435855.36841272592, "id": "g_mws.54029", "WATERSHED": "2B6G4", "BASIN": "2B", "AREA": "778.105", "elevation_m": 1256.1275510204082, "slope_deg": 26.795099465034902, "aspect_deg": 169.12237938631378, "historical_event_freq": 2, "flow_accumulation": 41.961734693877553, "twi": 2.31987766243302, "spi": 16.26851083813321, "distance_to_stream_m": 183.47803315426515 }, "geometry": { "type": "Polygon", "coordinates": [ [ [ 79.4310626, 30.1078418 ], [ 79.4306189, 30.1075948 ], [ 79.4294967, 30.1065624 ], [ 79.4284503, 30.1060251 ], [ 79.4276382, 30.1054789 ], [ 79.4270585, 30.1053799 ], [ 79.4267587, 30.1050586 ], [ 79.4263491, 30.1043586 ], [ 79.4261618, 30.1038438 ], [ 79.4256704, 30.1039391 ], [ 79.4254131, 30.1040837 ], [ 79.4251995, 30.1044128 ], [ 79.4250857, 30.1048975 ], [ 79.4248952, 30.1050617 ], [ 79.4245488, 30.1051575 ], [ 79.4243463, 30.1055061 ], [ 79.4238398, 30.1064357 ], [ 79.4237571, 30.1074153 ], [ 79.4238084, 30.1083857 ], [ 79.4243972, 30.1089311 ], [ 79.4253988, 30.109507 ], [ 79.4266573, 30.1100257 ], [ 79.4278923, 30.1108159 ], [ 79.4291389, 30.1116618 ], [ 79.4292788, 30.1111498 ], [ 79.4302312, 30.1091543 ], [ 79.4310626, 30.1078418 ] ] ] } },
{ "type": "Feature", "properties": { "OBJECTID": 427745, "vilnam_soi": "BINAGAUN", "stcode11": "05", "dtcode11": "057", "sdtcode11": "00288", "vilcode11": "041596", "stname": "UTTARAKHAND", "dtname": "Chamoli", "sdtname": "Tharali", "vilname11": "Beena Gaon", "vil_lgd": 41596, "dist_lgd": 47, "state_lgd": 5, "gp_code": 22470, "gp_name": "HARMANI TALLI", "subdt_lgd": 288, "block_name": "NARAYANBAGAR", "block_lgd": 372, "Remark": null, "ac_no": 5.0, "test": null, "shape_Length": 2733.9949125254393, "shape_Area": 510491.10068838263, "id": "g_mws.54029", "WATERSHED": "2B6G4", "BASIN": "2B", "AREA": "778.105", "elevation_m": 1190.9437229437228, "slope_deg": 20.678410512625128, "aspect_deg": 120.01014547937676, "historical_event_freq": 2, "flow_accumulation": 41.770562770562769, "twi": 2.4338220384852129, "spi": 14.811380764888506, "distance_to_stream_m": 173.31713461891027 }, "geometry": { "type": "Polygon", "coordinates": [ [ [ 79.4325642, 30.1017995 ], [ 79.4321626, 30.1019536 ], [ 79.4311379, 30.1015619 ], [ 79.4299785, 30.101325 ], [ 79.4286855, 30.1010488 ], [ 79.4280613, 30.1009108 ], [ 79.4272992, 30.101626 ], [ 79.4270627, 30.1020812 ], [ 79.4268143, 30.1027012 ], [ 79.4264326, 30.1032141 ], [ 79.4261618, 30.1038438 ], [ 79.4263491, 30.1043586 ], [ 79.4267587, 30.1050586 ], [ 79.4270585, 30.1053799 ], [ 79.4276382, 30.1054789 ], [ 79.4284503, 30.1060251 ], [ 79.4294967, 30.1065624 ], [ 79.4306189, 30.1075948 ], [ 79.4310626, 30.1078418 ], [ 79.4314566, 30.1076211 ], [ 79.4321647, 30.1074528 ], [ 79.4325582, 30.1073517 ], [ 79.4329328, 30.1070796 ], [ 79.433348, 30.1065173 ], [ 79.4335682, 30.1056297 ], [ 79.4336331, 30.1043487 ], [ 79.4333878, 30.102144 ], [ 79.4325642, 30.1017995 ] ] ] } },
{ "type": "Feature", "properties": { "OBJECTID": 427375, "vilnam_soi": "KUNDBAGAR", "stcode11": "05", "dtcode11": "057", "sdtcode11": "00288", "vilcode11": "041603", "stname": "UTTARAKHAND", "dtname": "Chamoli", "sdtname": "Tharali", "vilname11": "Kud Bagar", "vil_lgd": 41603, "dist_lgd": 47, "state_lgd": 5, "gp_code": 259846, "gp_name": "MALTURA", "subdt_lgd": 288, "block_name": "NARAYANBAGAR", "block_lgd": 372, "Remark": null, "ac_no": 5.0, "test": null, "shape_Length": 3757.8621963353021, "shape_Area": 690747.53289849777, "id": "g_mws.54029", "WATERSHED": "2B6G4", "BASIN": "2B", "AREA": "778.105", "elevation_m": 1198.503974562798, "slope_deg": 20.560915994548949, "aspect_deg": 81.082258631480912, "historical_event_freq": 2, "flow_accumulation": 53.453100158982515, "twi": 2.8976119654627754, "spi": 17.39102483373572, "distance_to_stream_m": 207.12458996093363 }, "geometry": { "type": "Polygon", "coordinates": [ [ [ 79.4325642, 30.1017995 ], [ 79.4330197, 30.1010152 ], [ 79.4340678, 30.0995668 ], [ 79.4344856, 30.0990996 ], [ 79.4353387, 30.0979771 ], [ 79.4362587, 30.0968937 ], [ 79.4351893, 30.0965019 ], [ 79.4348788, 30.0960933 ], [ 79.4349035, 30.0955695 ], [ 79.4349531, 30.0945024 ], [ 79.4346663, 30.0937834 ], [ 79.4341111, 30.0931994 ], [ 79.4335544, 30.0929451 ], [ 79.4328391, 30.0932143 ], [ 79.432483, 30.093019 ], [ 79.4315399, 30.094277 ], [ 79.4304172, 30.0957672 ], [ 79.4290501, 30.0970237 ], [ 79.4285571, 30.0974683 ], [ 79.4272641, 30.097192 ], [ 79.425772, 30.0965464 ], [ 79.4262802, 30.0976154 ], [ 79.4263893, 30.0981592 ], [ 79.4270292, 30.0996944 ], [ 79.4276284, 30.1004144 ], [ 79.4280613, 30.1009108 ], [ 79.4286855, 30.1010488 ], [ 79.4299785, 30.101325 ], [ 79.4311379, 30.1015619 ], [ 79.4321626, 30.1019536 ], [ 79.4325642, 30.1017995 ] ] ] } },
{ "type": "Feature", "properties": { "OBJECTID": 427113, "vilnam_soi": "SUNSARI", "stcode11": "05", "dtcode11": "057", "sdtcode11": "00288", "vilcode11": "041601", "stname": "UTTARAKHAND", "dtname": "Chamoli", "sdtname": "Tharali", "vilname11": "Sunsari", "vil_lgd": 41601, "dist_lgd": 47, "state_lgd": 5, "gp_code": 259844, "gp_name": "DEVPURI", "subdt_lgd": 288, "block_name": "NARAYANBAGAR", "block_lgd": 372, "Remark": null, "ac_no": 5.0, "test": null, "shape_Length": 1631.4660735569246, "shape_Area": 150648.83008996546, "id": "g_mws.54029", "WATERSHED": "2B6G4", "BASIN": "2B", "AREA": "778.105", "elevation_m": 1387.6102941176471, "slope_deg": 25.282822302805169, "aspect_deg": 109.01648117477555, "historical_event_freq": 2, "flow_accumulation": 15.794117647058824, "twi": 2.0848079179941728, "spi": 6.8734346897009821, "distance_to_stream_m": 256.59825214517764 }, "geometry": { "type": "Polygon", "coordinates": [ [ [ 79.4261618, 30.1038438 ], [ 79.4264326, 30.1032141 ], [ 79.4268143, 30.1027012 ], [ 79.4270627, 30.1020812 ], [ 79.4267078, 30.1016336 ], [ 79.4258495, 30.1014366 ], [ 79.4251475, 30.1012303 ], [ 79.4242668, 30.1010526 ], [ 79.4237508, 30.1016329 ], [ 79.423913, 30.1027395 ], [ 79.4233416, 30.1032419 ], [ 79.4228588, 30.1038709 ], [ 79.4228239, 30.1041618 ], [ 79.4236233, 30.1050281 ], [ 79.4243463, 30.1055061 ], [ 79.4245488, 30.1051575 ], [ 79.4248952, 30.1050617 ], [ 79.4250857, 30.1048975 ], [ 79.4251995, 30.1044128 ], [ 79.4254131, 30.1040837 ], [ 79.4256704, 30.1039391 ], [ 79.4261618, 30.1038438 ] ] ] } },
{ "type": "Feature", "properties": { "OBJECTID": 427326, "vilnam_soi": "CHHAPALL", "stcode11": "05", "dtcode11": "057", "sdtcode11": "00288", "vilcode11": "041602", "stname": "UTTARAKHAND", "dtname": "Chamoli", "sdtname": "Tharali", "vilname11": "Chhapali", "vil_lgd": 41602, "dist_lgd": 47, "state_lgd": 5, "gp_code": 22506, "gp_name": "TYUNLA", "subdt_lgd": 288, "block_name": "NARAYANBAGAR", "block_lgd": 372, "Remark": null, "ac_no": 5.0, "test": null, "shape_Length": 1625.4861217053717, "shape_Area": 160359.35003304482, "id": "g_mws.54029", "WATERSHED": "2B6G4", "BASIN": "2B", "AREA": "778.105", "elevation_m": 1350.0208333333333, "slope_deg": 21.150930343856608, "aspect_deg": 188.99828094242048, "historical_event_freq": 2, "flow_accumulation": 160.54861111111111, "twi": 3.2801504792328071, "spi": 34.711327317442283, "distance_to_stream_m": 80.784743959415835 }, "geometry": { "type": "Polygon", "coordinates": [ [ [ 79.4280613, 30.1009108 ], [ 79.4276284, 30.1004144 ], [ 79.4270292, 30.0996944 ], [ 79.4263893, 30.0981592 ], [ 79.424739, 30.0979205 ], [ 79.4241135, 30.0980541 ], [ 79.4236434, 30.0983823 ], [ 79.4236404, 30.0990226 ], [ 79.4239459, 30.100479 ], [ 79.4242668, 30.1010526 ], [ 79.4251475, 30.1012303 ], [ 79.4258495, 30.1014366 ], [ 79.4267078, 30.1016336 ], [ 79.4270627, 30.1020812 ], [ 79.4272992, 30.101626 ], [ 79.4280613, 30.1009108 ] ] ] } },
{ "type": "Feature", "properties": { "OBJECTID": 427528, "vilnam_soi": "KARCHOURA", "stcode11": "05", "dtcode11": "057", "sdtcode11": "00288", "vilcode11": "041607", "stname": "UTTARAKHAND", "dtname": "Chamoli", "sdtname": "Tharali", "vilname11": "Karchauda", "vil_lgd": 41607, "dist_lgd": 47, "state_lgd": 5, "gp_code": 259844, "gp_name": "DEVPURI", "subdt_lgd": 288, "block_name": "NARAYANBAGAR", "block_lgd": 372, "Remark": null, "ac_no": 5.0, "test": null, "shape_Length": 1245.9848207303505, "shape_Area": 79920.615276400888, "id": "g_mws.54029", "WATERSHED": "2B6G4", "BASIN": "2B", "AREA": "778.105", "elevation_m": 1476.9571428571428, "slope_deg": 22.219126525062567, "aspect_deg": 71.879764979742134, "historical_event_freq": 2, "flow_accumulation": 5.9857142857142858, "twi": 2.0226182667920445, "spi": 2.4298094079218955, "distance_to_stream_m": 443.5166838262806 }, "geometry": { "type": "Polygon", "coordinates": [ [ [ 79.4237508, 30.1016329 ], [ 79.4230157, 30.1013586 ], [ 79.4219562, 30.1012384 ], [ 79.422222, 30.1016565 ], [ 79.4220632, 30.102209 ], [ 79.4215485, 30.1025176 ], [ 79.4208202, 30.1031553 ], [ 79.4204827, 30.1037266 ], [ 79.4216646, 30.1039248 ], [ 79.4228239, 30.1041618 ], [ 79.4228588, 30.1038709 ], [ 79.4233416, 30.1032419 ], [ 79.423913, 30.1027395 ], [ 79.4237508, 30.1016329 ] ] ] } },
{ "type": "Feature", "properties": { "OBJECTID": 427747, "vilnam_soi": "BAMMAN GOUN", "stcode11": "05", "dtcode11": "057", "sdtcode11": "00288", "vilcode11": "041600", "stname": "UTTARAKHAND", "dtname": "Chamoli", "sdtname": "Tharali", "vilname11": "Baman Gaon", "vil_lgd": 41600, "dist_lgd": 47, "state_lgd": 5, "gp_code": 22469, "gp_name": "HARMANI MALLI", "subdt_lgd": 288, "block_name": "NARAYANBAGAR", "block_lgd": 372, "Remark": null, "ac_no": 5.0, "test": null, "shape_Length": 1822.3436882671854, "shape_Area": 113306.52237814279, "id": "g_mws.54029", "WATERSHED": "2B6G4", "BASIN": "2B", "AREA": "778.105", "elevation_m": 1468.5339805825242, "slope_deg": 21.38015245976905, "aspect_deg": 149.53800120736432, "historical_event_freq": 2, "flow_accumulation": 8.9320388349514559, "twi": 2.4514968941362101, "spi": 3.0279459598981795, "distance_to_stream_m": 606.48096283896791 }, "geometry": { "type": "Polygon", "coordinates": [ [ [ 79.423029, 30.1080142 ], [ 79.4230325, 30.1072769 ], [ 79.4229687, 30.1065975 ], [ 79.4226935, 30.105801 ], [ 79.4224715, 30.1055576 ], [ 79.4222818, 30.105557 ], [ 79.422069, 30.1057211 ], [ 79.4219335, 30.1060505 ], [ 79.4218635, 30.1067003 ], [ 79.4217472, 30.1076992 ], [ 79.4215107, 30.1081543 ], [ 79.4208954, 30.1084917 ], [ 79.4205254, 30.1088688 ], [ 79.420177, 30.1093914 ], [ 79.4192238, 30.1103679 ], [ 79.4189201, 30.110881 ], [ 79.4191318, 30.1109594 ], [ 79.4194099, 30.1111447 ], [ 79.4198899, 30.1110979 ], [ 79.4204602, 30.1108477 ], [ 79.4217037, 30.1098335 ], [ 79.4223664, 30.1089141 ], [ 79.423029, 30.1080142 ] ] ] } }
]
}
